STARLINK-30403          
1 57813U 23138F   23351.13143731  .00001709  00000+0  14150-3 0  9998
2 57813  43.0020 336.8978 0000717 241.0395 119.0376 15.02538386 16227
STARLINK-30413          
1 57814U 23138G   23351.12922216  .00011678  00000+0  87793-3 0  9990
2 57814  43.0021 336.8815 0000704 263.2225  96.8538 15.02542377 16321
STARLINK-30398          
1 57815U 23138H   23351.12810319  .00000857  00000+0  78451-4 0  9990
2 57815  43.0029 336.8722 0001067 267.1468  92.9252 15.02543284 16229
STARLINK-30386          
1 57816U 23138J   23351.45716046  .00010515  00000+0  79197-3 0  9998
2 57816  43.0028 335.0414 0001232 263.6351  96.4351 15.02553108 16106
STARLINK-30391          
1 57817U 23138K   23350.45667009  .00007227  00000+0  54949-3 0  9996
2 57817  43.0029 340.4349 0001233 264.6349  95.4353 15.02536839 16220
STARLINK-30401          
1 57818U 23138L   23351.45050671  .00010567  00000+0  79569-3 0  9995
2 57818  43.0026 334.9918 0001121 255.2836 104.7882 15.02555469 16277
STARLINK-30390          
1 57819U 23138M   23351.31420904  .00002272  00000+0  18312-3 0  9994
2 57819  43.0024 335.6885 0001494 245.4970 114.5717 15.02549272 16293
STARLINK-30409          
1 57820U 23138N   23351.10146721  .00016077  00000+0  12022-2 0  9994
2 57820  43.0037 336.6535 0001075 259.0495 101.0226 15.02543664 16273
STARLINK-30415          
1 57821U 23138P   23351.37403789  .00013557  00000+0  10163-2 0  9998
2 57821  43.0026 335.2783 0000860 246.0943 113.9809 15.02551599 16362
STARLINK-30417          
1 57822U 23138Q   23350.42196707  .00033917  00000+0  23836-2 0  9996
2 57822  43.0021 340.1798 0001863 146.5071 213.5891 15.04533749 16119
STARLINK-30407          
1 57823U 23138R   23351.41611533  .00019333  00000+0  14419-2 0  9999
2 57823  43.0015 334.7332 0001283 268.9971  91.0724 15.02545920 16374
STARLINK-30408          
1 57824U 23138S   23351.30422994  .00005128  00000+0  39431-3 0  9998
2 57824  43.0016 335.6129 0001224 259.2116 100.8589 15.02546395 16352
STARLINK-30377          
1 57825U 23138T   23351.42054030  .00022741  00000+0  16920-2 0  9991
2 57825  43.0042 334.7695 0001214 265.4098  94.6606 15.02559420 16271
STARLINK-30422          
1 57826U 23138U   23351.42386346  .00019164  00000+0  14287-2 0  9999
2 57826  43.0020 334.7919 0001191 264.4026  95.6681 15.02565785 16377
STARLINK-30402          
1 57827U 23138V   23350.43335985  .00004036  00000+0  31367-3 0  9994
2 57827  43.0026 340.2589 0001216 259.9964 100.0741 15.02536518 16221
STARLINK-30411          
1 57828U 23138W   23351.08703721  .00002155  00000+0  17451-3 0  9992
2 57828  43.0037 336.5472 0001146 273.7746  86.2965 15.02542063 16266
STARLINK-30418          
1 57829U 23138X   23351.08482021  .00011695  00000+0  87927-3 0  9994
2 57829  43.0008 336.5472 0001334 261.4542  98.6149 15.02540575 16168
YAOGAN-40 01A           
1 57830U 23139A   23351.15404084  .00000160  00000+0  77423-4 0  9994
2 57830  85.9907 309.4342 0002062  92.6509 267.4910 14.12007712 13838
YAOGAN-40 01B           
1 57832U 23139C   23351.50851630  .00000253  00000+0  12822-3 0  9992
2 57832  85.9905 309.2730 0002146  89.2539 270.8890 14.12005898 13899
YAOGAN-40 01C           
1 57833U 23139D   23351.50844413  .00000260  00000+0  13208-3 0  9991
2 57833  85.9910 308.5167 0001914  85.8540 274.2862 14.12007273 13995
CZ-6A DEB               
1 57834U 23139E   23350.98875212  .00000413  00000+0  16192-3 0  9999
2 57834  85.9896 308.5016 0010993 331.0546  29.0035 14.26981156 13951
STARLINK-30285          
1 57840U 23141A   23351.48537230  .00000830  00000+0  54649-4 0  9993
2 57840  53.0546  93.3462 0001636  60.8516 299.2641 15.18718024 15969
STARLINK-30410          
1 57841U 23141B   23351.52656483  .00024291  00000+0  11667-2 0  9999
2 57841  53.0557  94.3110 0001525 103.3680 256.7485 15.18732900 15946
STARLINK-30435          
1 57842U 23141C   23351.52562573  .00001753  00000+0  98562-4 0  9995
2 57842  53.0553  94.3051 0001471 113.7692 246.3457 15.18720636 15942
STARLINK-30423          
1 57843U 23141D   23351.52055054  .00010328  00000+0  50561-3 0  9991
2 57843  53.0555  94.2676 0001349  89.2316 270.8833 15.18740959 15941
STARLINK-30292          
1 57844U 23141E   23351.49053146  .00000399  00000+0  34133-4 0  9993
2 57844  53.0534  94.0804 0001325  80.5133 279.6011 15.18716322 15947
STARLINK-30419          
1 57845U 23141F   23351.51207806  .00007389  00000+0  36617-3 0  9995
2 57845  53.0554  77.6760 0001268  99.1368 260.9769 15.18738921 16224
STARLINK-30420          
1 57846U 23141G   23351.50527899  .00005411  00000+0  27233-3 0  9990
2 57846  53.0587  90.6001 0001913 131.2574 228.8585 15.18732721 15992
STARLINK-30416          
1 57847U 23141H   23351.47016390  .00000976  00000+0  61577-4 0  9997
2 57847  53.0544  93.2216 0001525  93.6912 266.4257 15.18713168 15953
STARLINK-30426          
1 57848U 23141J   23351.51643288  .00001457  00000+0  84461-4 0  9997
2 57848  53.0562  94.2428 0001347  80.7784 279.3363 15.18719087 15942
STARLINK-30430          
1 57849U 23141K   23351.47523569  .00002895  00000+0  15287-3 0  9998
2 57849  53.0540  93.2885 0001827  60.2378 299.8798 15.18721170 15956
STARLINK-30425          
1 57850U 23141L   23351.51548766  .00001703  00000+0  96177-4 0  9996
2 57850  53.0567  94.2380 0001514  99.4750 260.6416 15.18723185 15949
STARLINK-30405          
1 57851U 23141M   23351.51062156  .00012178  00000+0  59348-3 0  9997
2 57851  53.0567  92.7508 0001454  93.0329 267.0832 15.18731401 15965
STARLINK-30431          
1 57852U 23141N   23350.59004407  .00009381  00000+0  46124-3 0  9990
2 57852  53.0566  98.4214 0001462  99.5792 260.5367 15.18696830 15817
STARLINK-30404          
1 57853U 23141P   23351.51041245  .00003957  00000+0  20328-3 0  9996
2 57853  53.0562  94.2062 0001336 103.2366 256.8778 15.18727655 15947
STARLINK-30412          
1 57854U 23141Q   23351.50629576  .00002193  00000+0  11943-3 0  9999
2 57854  53.0553  94.1781 0001666 103.5284 256.5896 15.18725890 15940
STARLINK-30392          
1 57855U 23141R   23351.50535247  .00002197  00000+0  11969-3 0  9993
2 57855  53.0557  94.1722 0001198  81.6820 278.4310 15.18715632 15961
STARLINK-30291          
1 57856U 23141S   23351.49615850  .00001688  00000+0  95448-4 0  9990
2 57856  53.0535  94.1168 0001527  65.3033 294.8121 15.18717198 15942
STARLINK-30424          
1 57857U 23141T   23351.25001157  .00060821  00000+0  28885-2 0  9997
2 57857  53.0551  83.7589 0000882  92.9892  17.5889 15.18679654 16085
STARLINK-30290          
1 57858U 23141U   23351.50122470  .00008790  00000+0  43280-3 0  9992
2 57858  53.0543  94.1488 0001289  79.1516 280.9623 15.18728338 15943
STARLINK-30414          
1 57859U 23141V   23351.50027850  .00003037  00000+0  15958-3 0  9999
2 57859  53.0547  94.1395 0001241 106.4884 253.6247 15.18722627 15949
STARLINK-30272          
1 57860U 23141W   23351.49014967 -.00001945  00000+0 -77414-4 0  9998
2 57860  53.0525  94.0884 0002180  55.6345 304.4855 15.18710994 15965
VICTUS NOX              
1 57861U 23142A   23351.47174108  .00018317  00000+0  50303-3 0  9998
2 57861  97.3185 177.1816 0011999 103.0237 257.2348 15.37215880 14273
SOYUZ-MS 24             
1 57862U 23143A   23350.52923492  .00014340  00000+0  25472-3 0  9994
2 57862  51.6388 145.3530 0001943  31.0951 329.0153 15.50451241430062
STARLINK-30432          
1 57864U 23144A   23351.45277502  .00012718  00000+0  95435-3 0  9997
2 57864  43.0031  26.8113 0001191 279.5575  80.5132 15.02554365 15221
STARLINK-30427          
1 57865U 23144B   23350.45227920  .00000695  00000+0  66536-4 0  9998
2 57865  43.0039  32.2029 0000889 258.2333 101.8410 15.02534551 15081
STARLINK-30393          
1 57866U 23144C   23351.45931454  .00001063  00000+0  93762-4 0  9995
2 57866  43.0037  25.9994 0001300 284.1525  75.9173 15.02542557 15239
STARLINK-30439          
1 57867U 23144D   23351.44611215  .00003861  00000+0  30063-3 0  9997
2 57867  43.0033  26.7590 0001207 253.6871 106.3838 15.02548458 15275
STARLINK-30442          
1 57868U 23144E   23350.51208921  .00003015  00000+0  23816-3 0  9990
2 57868  43.0032  31.7490 0001047 270.6610  89.4112 15.02540622 15093
STARLINK-30441          
1 57869U 23144F   23351.45609956  .00006371  00000+0  48613-3 0  9998
2 57869  43.0040  26.7917 0001269 280.8362  79.2337 15.02544713 15231
STARLINK-30460          
1 57870U 23144G   23350.57523998  .00001748  00000+0  14441-3 0  9998
2 57870  43.0031  31.4045 0001072 264.4143  95.6577 15.02540047 15150
STARLINK-30444          
1 57871U 23144H   23351.43279442  .00002502  00000+0  20022-3 0  9998
2 57871  43.0033  26.6597 0001111 276.9198  83.1518 15.02542167 14952
STARLINK-30446          
1 57872U 23144J   23351.44906017  .00035284  00000+0  18078-2 0  9995
2 57872  43.0036  19.0722 0000768 256.0080 104.0682 15.15984704 15056
STARLINK-30445          
1 57873U 23144K   23351.43613733  .00004067  00000+0  31591-3 0  9996
2 57873  43.0034  26.6885 0000916 280.7776  79.2963 15.02544757 15220
STARLINK-30447          
1 57874U 23144L   23351.36111934  .00000144  00000+0  24680-4 0  9999
2 57874  43.0015   0.8654 0001347 274.2667  85.8022 15.04487938 15570
STARLINK-30434          
1 57875U 23144M   23350.42896423  .00000746  00000+0  70278-4 0  9991
2 57875  43.0026  32.0272 0001185 254.2260 105.8451 15.02536439 15133
STARLINK-30429          
1 57876U 23144N   23351.42280872  .00014040  00000+0  10521-2 0  9993
2 57876  43.0025  26.5841 0001203 259.9559 100.1148 15.02544327 15289
STARLINK-30284          
1 57877U 23144P   23351.31807956  .00000059  00000+0  14905-4 0  9997
2 57877  43.0018 353.5039 0000774 218.8164 141.2628 15.15966995 15655
STARLINK-30433          
1 57878U 23144Q   23350.62173942  .00000927  00000+0  83666-4 0  9996
2 57878  43.0037  30.8928 0001182 260.0758  99.9950 15.02539951 15168
STARLINK-30358          
1 57879U 23144R   23350.41898140  .00000483  00000+0  50809-4 0  9998
2 57879  43.0023  31.9506 0001146 238.4601 121.6129 15.02530685 15126
